{"fetched_at":"2026-07-15T06:35:32.501Z","source":"https://celestrak.org/NORAD/elements/gp.php?GROUP=oneweb&FORMAT=JSON","constellation":"oneweb","records":[{"OBJECT_NAME":"ONEWEB-0387","OBJECT_ID":"2021-090AL","EPOCH":"2026-07-14T17:10:53.326272","CLASSIFICATION_TYPE":"U","MEAN_MOTION":13.20769385,"ECCENTRICITY":0.00019902,"INCLINATION":87.9175,"RA_OF_ASC_NODE":268.9655,"ARG_OF_PERICENTER":88.9789,"MEAN_ANOMALY":271.1573,"EPHEMERIS_TYPE":0,"NORAD_CAT_ID":49313,"ELEMENT_SET_NO":999,"REV_AT_EPOCH":23345,"BSTAR":0.000068473205,"MEAN_MOTION_DOT":4.1e-7,"MEAN_MOTION_DDOT":0},{"OBJECT_NAME":"ONEWEB-0388","OBJECT_ID":"2021-090AM","EPOCH":"2026-07-14T20:29:03.838560","CLASSIFICATION_TYPE":"U","MEAN_MOTION":13.1972681,"ECCENTRICITY":0.00018696,"INCLINATION":87.9184,"RA_OF_ASC_NODE":299.4601,"ARG_OF_PERICENTER":100.0414,"MEAN_ANOMALY":260.093,"EPHEMERIS_TYPE":0,"NORAD_CAT_ID":49314,"ELEMENT_SET_NO":999,"REV_AT_EPOCH":23006,"BSTAR":0.00008177175,"MEAN_MOTION_DOT":4.6e-7,"MEAN_MOTION_DDOT":0},{"OBJECT_NAME":"ONEWEB-0389","OBJECT_ID":"2021-132A","EPOCH":"2026-07-14T20:08:50.500896","CLASSIFICATION_TYPE":"U","MEAN_MOTION":13.17649651,"ECCENTRICITY":0.00017154,"INCLINATION":87.9144,"RA_OF_ASC_NODE":0.3662,"ARG_OF_PERICENTER":82.4793,"MEAN_ANOMALY":277.6533,"EPHEMERIS_TYPE":0,"NORAD_CAT_ID":50469,"ELEMENT_SET_NO":999,"REV_AT_EPOCH":22172,"BSTAR":-0.00033470873,"MEAN_MOTION_DOT":-0.00000117,"MEAN_MOTION_DDOT":0},{"OBJECT_NAME":"ONEWEB-0390","OBJECT_ID":"2021-132B","EPOCH":"2026-07-14T22:00:37.038240","CLASSIFICATION_TYPE":"U","MEAN_MOTION":13.17651083,"ECCENTRICITY":0.00020843,"INCLINATION":87.9145,"RA_OF_ASC_NODE":0.3518,"ARG_OF_PERICENTER":91.6671,"MEAN_ANOMALY":268.4699,"EPHEMERIS_TYPE":0,"NORAD_CAT_ID":50470,"ELEMENT_SET_NO":999,"REV_AT_EPOCH":22173,"BSTAR":0.000039791757,"MEAN_MOTION_DOT":2.8e-7,"MEAN_MOTION_DDOT":0},{"OBJECT_NAME":"ONEWEB-0391","OBJECT_ID":"2021-132C","EPOCH":"2026-07-14T22:03:02.875392","CLASSIFICATION_TYPE":"U","MEAN_MOTION":13.17650555,"ECCENTRICITY":0.00020241,"INCLINATION":87.9147,"RA_OF_ASC_NODE":0.3615,"ARG_OF_PERICENTER":69.6932,"MEAN_ANOMALY":290.4417,"EPHEMERIS_TYPE":0,"NORAD_CAT_ID":50471,"ELEMENT_SET_NO":999,"REV_AT_EPOCH":22173,"BSTAR":-0.000014944547,"MEAN_MOTION_DOT":7e-8,"MEAN_MOTION_DDOT":0},{"OBJECT_NAME":"ONEWEB-0392","OBJECT_ID":"2021-132D","EPOCH":"2026-07-14T22:46:47.608896","CLASSIFICATION_TYPE":"U","MEAN_MOTION":13.1765059,"ECCENTRICITY":0.00017822,"INCLINATION":87.9152,"RA_OF_ASC_NODE":0.326,"ARG_OF_PERICENTER":80.338,"MEAN_ANOMALY":279.7953,"EPHEMERIS_TYPE":0,"NORAD_CAT_ID":50472,"ELEMENT_SET_NO":999,"REV_AT_EPOCH":22177,"BSTAR":-0.000097703323,"MEAN_MOTION_DOT":-2.5e-7,"MEAN_MOTION_DDOT":0},{"OBJECT_NAME":"ONEWEB-0393","OBJECT_ID":"2021-132E","EPOCH":"2026-07-14T22:11:34.264896","CLASSIFICATION_TYPE":"U","MEAN_MOTION":13.17647652,"ECCENTRICITY":0.00018205,"INCLINATION":87.9143,"RA_OF_ASC_NODE":0.3453,"ARG_OF_PERICENTER":86.559,"MEAN_ANOMALY":273.575,"EPHEMERIS_TYPE":0,"NORAD_CAT_ID":50473,"ELEMENT_SET_NO":999,"REV_AT_EPOCH":22176,"BSTAR":-0.00010366104,"MEAN_MOTION_DOT":-2.7e-7,"MEAN_MOTION_DDOT":0},{"OBJECT_NAME":"ONEWEB-0394","OBJECT_ID":"2021-132F","EPOCH":"2026-07-14T20:51:13.716864","CLASSIFICATION_TYPE":"U","MEAN_MOTION":13.18684545,"ECCENTRICITY":0.00017531,"INCLINATION":87.9195,"RA_OF_ASC_NODE":329.938,"ARG_OF_PERICENTER":97.9397,"MEAN_ANOMALY":262.1934,"EPHEMERIS_TYPE":0,"NORAD_CAT_ID":50474,"ELEMENT_SET_NO":999,"REV_AT_EPOCH":22524,"BSTAR":0.000036194883,"MEAN_MOTION_DOT":2.7e-7,"MEAN_MOTION_DDOT":0},{"OBJECT_NAME":"ONEWEB-0395","OBJECT_ID":"2021-132G","EPOCH":"2026-07-14T20:42:23.596704","CLASSIFICATION_TYPE":"U","MEAN_MOTION":13.11418487,"ECCENTRICITY":0.00020144,"INCLINATION":87.8883,"RA_OF_ASC_NODE":15.5551,"ARG_OF_PERICENTER":85.0913,"MEAN_ANOMALY":275.0444,"EPHEMERIS_TYPE":0,"NORAD_CAT_ID":50475,"ELEMENT_SET_NO":999,"REV_AT_EPOCH":21934,"BSTAR":0.0008519345,"MEAN_MOTION_DOT":0.00000315,"MEAN_MOTION_DDOT":0},{"OBJECT_NAME":"ONEWEB-0396","OBJECT_ID":"2021-132H","EPOCH":"2026-07-14T20:41:31.657344","CLASSIFICATION_TYPE":"U","MEAN_MOTION":13.18686438,"ECCENTRICITY":0.00017488,"INCLINATION":87.9196,"RA_OF_ASC_NODE":329.9523,"ARG_OF_PERICENTER":95.364,"MEAN_ANOMALY":264.7692,"EPHEMERIS_TYPE":0,"NORAD_CAT_ID":50476,"ELEMENT_SET_NO":999,"REV_AT_EPOCH":22528,"BSTAR":-0.000026860918,"MEAN_MOTION_DOT":2e-8,"MEAN_MOTION_DDOT":0},{"OBJECT_NAME":"ONEWEB-0397","OBJECT_ID":"2021-132J","EPOCH":"2026-07-14T21:03:22.390272","CLASSIFICATION_TYPE":"U","MEAN_MOTION":13.18686331,"ECCENTRICITY":0.0001633,"INCLINATION":87.9197,"RA_OF_ASC_NODE":329.9495,"ARG_OF_PERICENTER":97.4189,"MEAN_ANOMALY":262.7128,"EPHEMERIS_TYPE":0,"NORAD_CAT_ID":50477,"ELEMENT_SET_NO":999,"REV_AT_EPOCH":22526,"BSTAR":0.000080872634,"MEAN_MOTION_DOT":4.5e-7,"MEAN_MOTION_DDOT":0},{"OBJECT_NAME":"ONEWEB-0398","OBJECT_ID":"2021-132K","EPOCH":"2026-07-14T21:45:51.786432","CLASSIFICATION_TYPE":"U","MEAN_MOTION":13.11415903,"ECCENTRICITY":0.00021623,"INCLINATION":87.889,"RA_OF_ASC_NODE":15.5394,"ARG_OF_PERICENTER":88.9754,"MEAN_ANOMALY":271.1622,"EPHEMERIS_TYPE":0,"NORAD_CAT_ID":50478,"ELEMENT_SET_NO":999,"REV_AT_EPOCH":21924,"BSTAR":-0.0013614696,"MEAN_MOTION_DOT":-0.0000047,"MEAN_MOTION_DDOT":0},{"OBJECT_NAME":"ONEWEB-0399","OBJECT_ID":"2021-132L","EPOCH":"2026-07-14T21:26:20.623200","CLASSIFICATION_TYPE":"U","MEAN_MOTION":13.11414749,"ECCENTRICITY":0.00015394,"INCLINATION":87.889,"RA_OF_ASC_NODE":15.553,"ARG_OF_PERICENTER":77.2902,"MEAN_ANOMALY":282.8398,"EPHEMERIS_TYPE":0,"NORAD_CAT_ID":50479,"ELEMENT_SET_NO":999,"REV_AT_EPOCH":21923,"BSTAR":-0.000068774345,"MEAN_MOTION_DOT":-1.2e-7,"MEAN_MOTION_DDOT":0},{"OBJECT_NAME":"ONEWEB-0400","OBJECT_ID":"2021-132M","EPOCH":"2026-07-14T20:31:48.170496","CLASSIFICATION_TYPE":"U","MEAN_MOTION":13.1868434,"ECCENTRICITY":0.00020475,"INCLINATION":87.9197,"RA_OF_ASC_NODE":329.9434,"ARG_OF_PERICENTER":96.6796,"MEAN_ANOMALY":263.4569,"EPHEMERIS_TYPE":0,"NORAD_CAT_ID":50480,"ELEMENT_SET_NO":999,"REV_AT_EPOCH":22525,"BSTAR":0.00010498213,"MEAN_MOTION_DOT":5.4e-7,"MEAN_MOTION_DDOT":0},{"OBJECT_NAME":"ONEWEB-0401","OBJECT_ID":"2021-132N","EPOCH":"2026-07-14T21:37:22.372896","CLASSIFICATION_TYPE":"U","MEAN_MOTION":13.18686468,"ECCENTRICITY":0.00017569,"INCLINATION":87.9201,"RA_OF_ASC_NODE":329.9316,"ARG_OF_PERICENTER":105.2273,"MEAN_ANOMALY":254.9053,"EPHEMERIS_TYPE":0,"NORAD_CAT_ID":50481,"ELEMENT_SET_NO":999,"REV_AT_EPOCH":22526,"BSTAR":-0.00019244293,"MEAN_MOTION_DOT":-6.3e-7,"MEAN_MOTION_DDOT":0},{"OBJECT_NAME":"ONEWEB-0402","OBJECT_ID":"2021-132P","EPOCH":"2026-07-14T20:43:56.500032","CLASSIFICATION_TYPE":"U","MEAN_MOTION":13.18687392,"ECCENTRICITY":0.00015675,"INCLINATION":87.9195,"RA_OF_ASC_NODE":329.9279,"ARG_OF_PERICENTER":109.7892,"MEAN_ANOMALY":250.3409,"EPHEMERIS_TYPE":0,"NORAD_CAT_ID":50482,"ELEMENT_SET_NO":999,"REV_AT_EPOCH":22528,"BSTAR":-0.00010614814,"MEAN_MOTION_DOT":-2.9e-7,"MEAN_MOTION_DDOT":0}]}
