ONEWEB-0387             
1 49313U 21090AL  26195.71589498  .00000041  00000+0  68473-4 0  9992
2 49313  87.9175 268.9655 0001990  88.9789 271.1573 13.20769385233455
ONEWEB-0388             
1 49314U 21090AM  26195.85351665  .00000046  00000+0  81772-4 0  9993
2 49314  87.9184 299.4601 0001869 100.0414 260.0930 13.19726810230064
ONEWEB-0389             
1 50469U 21132A   26195.83947339 -.00000117  00000+0 -33471-3 0  9993
2 50469  87.9144   0.3662 0001715  82.4793 277.6533 13.17649651221723
ONEWEB-0390             
1 50470U 21132B   26195.91709535  .00000028  00000+0  39792-4 0  9990
2 50470  87.9145   0.3518 0002084  91.6671 268.4699 13.17651083221737
ONEWEB-0391             
1 50471U 21132C   26195.91878328  .00000007  00000+0 -14945-4 0  9999
2 50471  87.9147   0.3615 0002024  69.6932 290.4417 13.17650555221733
ONEWEB-0392             
1 50472U 21132D   26195.94916214 -.00000025  00000+0 -97703-4 0  9994
2 50472  87.9152   0.3260 0001782  80.3380 279.7953 13.17650590221771
ONEWEB-0393             
1 50473U 21132E   26195.92470214 -.00000027  00000+0 -10366-3 0  9999
2 50473  87.9143   0.3453 0001820  86.5590 273.5750 13.17647652221761
ONEWEB-0394             
1 50474U 21132F   26195.86890876  .00000027  00000+0  36195-4 0  9990
2 50474  87.9195 329.9380 0001753  97.9397 262.1934 13.18684545225242
ONEWEB-0395             
1 50475U 21132G   26195.86277311  .00000315  00000+0  85193-3 0  9995
2 50475  87.8883  15.5551 0002014  85.0913 275.0444 13.11418487219343
ONEWEB-0396             
1 50476U 21132H   26195.86217196  .00000002  00000+0 -26861-4 0  9993
2 50476  87.9196 329.9523 0001748  95.3640 264.7692 13.18686438225287
ONEWEB-0397             
1 50477U 21132J   26195.87734248  .00000045  00000+0  80873-4 0  9996
2 50477  87.9197 329.9495 0001633  97.4189 262.7128 13.18686331225263
ONEWEB-0398             
1 50478U 21132K   26195.90684938 -.00000470  00000+0 -13615-2 0  9993
2 50478  87.8890  15.5394 0002162  88.9754 271.1622 13.11415903219242
ONEWEB-0399             
1 50479U 21132L   26195.89329425 -.00000012  00000+0 -68774-4 0  9999
2 50479  87.8890  15.5530 0001539  77.2902 282.8398 13.11414749219233
ONEWEB-0400             
1 50480U 21132M   26195.85541864  .00000054  00000+0  10498-3 0  9993
2 50480  87.9197 329.9434 0002047  96.6796 263.4569 13.18684340225259
ONEWEB-0401             
1 50481U 21132N   26195.90095339 -.00000063  00000+0 -19244-3 0  9991
2 50481  87.9201 329.9316 0001756 105.2273 254.9053 13.18686468225265
ONEWEB-0402             
1 50482U 21132P   26195.86384838 -.00000029  00000+0 -10615-3 0  9997
2 50482  87.9195 329.9279 0001567 109.7892 250.3409 13.18687392225286
